EUTELSAT 8 WEST B       
1 40875U 15039B   25235.24437767 -.00000082  00000+0  00000+0 0  9998
2 40875   0.0669 348.6694 0003724 162.6057 260.4941  1.00271130 36662
EUTELSAT 9B             
1 41310U 16005A   25235.24489274  .00000045  00000+0  00000+0 0  9995
2 41310   0.0260  64.1706 0001532 121.2734 243.4794  1.00270521 35126
EUTELSAT 65 WEST A      
1 41382U 16014A   25235.23311095 -.00000293  00000+0  00000+0 0  9994
2 41382   0.0734  48.3073 0002111 106.7141 195.4660  1.00271108 34541
EUTELSAT 117 WEST B     
1 41589U 16038B   25232.58195791 -.00000029  00000+0  00000+0 0  9994
2 41589   0.0101 245.7744 0000349 218.9178 316.9671  1.00271423 33645
EUTELSAT 172B           
1 42741U 17029B   25234.78053295 -.00000024  00000+0  00000+0 0  9997
2 42741   0.0170 158.5876 0000146  84.5835 181.1276  1.00270485 30738
EUTELSAT 7C             
1 44334U 19034B   25235.24489274  .00000031  00000+0  00000+0 0  9994
2 44334   0.0738 188.6376 0003087 311.5888 286.7133  1.00270256  3847
EUTELSAT 5 WEST B       
1 44624U 19067A   25235.25044510 -.00000059  00000+0  00000+0 0  9994
2 44624   0.0921 309.6277 0002984 207.6721 259.6118  1.00272372 21443
EUTELSAT KONNECT        
1 45027U 20005B   25235.10739235  .00000033  00000+0  00000+0 0  9996
2 45027   0.0640 101.1387 0001772  73.0175 203.3371  1.00273162 21331
